[{"OBJECT_NAME":"STARLINK-4258","OBJECT_ID":"2022-083BA","EPOCH":"2026-03-09T10:28:22.677312","MEAN_MOTION":15.08837411,"ECCENTRICITY":0.00015108,"INCLINATION":53.2186,"RA_OF_ASC_NODE":125.1293,"ARG_OF_PERICENTER":96.6947,"MEAN_ANOMALY":263.4217,"EPHEMERIS_TYPE":0,"CLASSIFICATION_TYPE":"U","NORAD_CAT_ID":53180,"ELEMENT_SET_NO":999,"REV_AT_EPOCH":20187,"BSTAR":-3.3853939e-5,"MEAN_MOTION_DOT":-8.27e-6,"MEAN_MOTION_DDOT":0},{"OBJECT_NAME":"CZ-2D DEB","OBJECT_ID":"2010-027D","EPOCH":"2026-03-07T13:36:06.977952","MEAN_MOTION":15.23568143,"ECCENTRICITY":0.0065729,"INCLINATION":97.6621,"RA_OF_ASC_NODE":290.9585,"ARG_OF_PERICENTER":344.0278,"MEAN_ANOMALY":15.8885,"EPHEMERIS_TYPE":0,"CLASSIFICATION_TYPE":"U","NORAD_CAT_ID":38299,"ELEMENT_SET_NO":999,"REV_AT_EPOCH":83553,"BSTAR":0.0024156,"MEAN_MOTION_DOT":0.00061723,"MEAN_MOTION_DDOT":0}]
